[{"OBJECT_NAME":"TOMORROW-S4","OBJECT_ID":"2024-247K","EPOCH":"2026-03-09T12:47:35.836224","MEAN_MOTION":15.27717249,"ECCENTRICITY":0.00044343,"INCLINATION":44.9818,"RA_OF_ASC_NODE":117.9996,"ARG_OF_PERICENTER":210.4078,"MEAN_ANOMALY":149.6548,"EPHEMERIS_TYPE":0,"CLASSIFICATION_TYPE":"U","NORAD_CAT_ID":62386,"ELEMENT_SET_NO":999,"REV_AT_EPOCH":6770,"BSTAR":0.00046927249,"MEAN_MOTION_DOT":0.00012677,"MEAN_MOTION_DDOT":0},{"OBJECT_NAME":"STARLINK-35262","OBJECT_ID":"2025-221AA","EPOCH":"2026-03-09T11:19:58.938816","MEAN_MOTION":15.3020959,"ECCENTRICITY":0.00011967,"INCLINATION":53.1584,"RA_OF_ASC_NODE":89.8108,"ARG_OF_PERICENTER":64.2254,"MEAN_ANOMALY":295.887,"EPHEMERIS_TYPE":0,"CLASSIFICATION_TYPE":"U","NORAD_CAT_ID":65847,"ELEMENT_SET_NO":999,"REV_AT_EPOCH":2604,"BSTAR":0.00075207956,"MEAN_MOTION_DOT":0.00021988,"MEAN_MOTION_DDOT":0}]
