TOMORROW-S4             
1 62386U 24247K   26068.53305366  .00012677  00000+0  46927-3 0  9990
2 62386  44.9818 117.9996 0004434 210.4078 149.6548 15.27717249 67702
STARLINK-35262          
1 65847U 25221AA  26068.47220994  .00021988  00000+0  75208-3 0  9993
2 65847  53.1584  89.8108 0001196  64.2254 295.8870 15.30209590 26047
